OBJECT_NAME,OBJECT_ID,EPOCH,MEAN_MOTION,ECCENTRICITY,INCLINATION,RA_OF_ASC_NODE,ARG_OF_PERICENTER,MEAN_ANOMALY,EPHEMERIS_TYPE,CLASSIFICATION_TYPE,NORAD_CAT_ID,ELEMENT_SET_NO,REV_AT_EPOCH,BSTAR,MEAN_MOTION_DOT,MEAN_MOTION_DDOT
COSMOS 2058,1990-010A,2026-07-23T11:09:59.099040,15.12193680,.00087163,82.4676,273.5751,217.0144,143.0486,0,U,20465,999,96275,.15802279E-3,.2758E-4,0
SL-14 R/B,1990-010B,2026-07-23T07:36:39.017664,14.83666735,.00189147,82.5041,140.0164,208.9474,151.0694,0,U,20466,999,94859,.35083274E-4,.314E-5,0
SL-14 R/B,1990-018B,2026-07-23T04:41:28.667616,14.82237797,.00164102,82.5212,96.4520,11.6136,348.5454,0,U,20511,999,94265,.3449816E-4,.299E-5,0
HST,1990-037B,2026-07-23T06:09:58.917888,15.31122099,.00019282,28.4721,193.9755,181.0239,179.0353,0,U,20580,999,79410,.17776468E-3,.5734E-4,0
SL-16 R/B,1990-046B,2026-07-23T11:53:34.024416,14.15029995,.00121397,71.0001,12.6896,99.4872,260.7624,0,U,20625,999,86760,.13504024E-3,.214E-5,0
COSMOS 2084,1990-055A,2026-07-23T07:27:40.138272,15.06243706,.0009132,62.7872,232.7820,324.8121,35.2375,0,U,20663,999,95674,.10635414E-3,.1366E-4,0
SL-6 R/B(2),1990-055D,2026-07-23T06:48:18.214560,15.04114726,.00463638,62.7814,152.5329,10.1325,350.0698,0,U,20666,999,95858,.1508581E-3,.194E-4,0
SL-8 R/B,1990-078B,2026-07-23T12:22:50.718720,14.93721786,.03426156,82.9031,128.7766,275.1783,81.0431,0,U,20775,999,82954,.27502772E-3,.9698E-4,0
SL-8 R/B,1991-006B,2026-07-23T04:11:40.165152,13.77510541,.00229413,82.9401,69.2576,18.9208,98.8235,0,U,21088,999,78272,.86941052E-4,.102E-5,0
OKEAN-3,1991-039A,2026-07-23T10:20:30.691392,15.05466937,.00131744,82.5153,205.2304,222.7225,137.2979,0,U,21397,999,88545,.14328947E-3,.2089E-4,0
COSMOS 2151,1991-042A,2026-07-23T12:53:47.634432,15.00530912,.0011244,82.4982,312.6011,325.9564,34.0938,0,U,21422,999,88356,.91942681E-4,.1187E-4,0
SL-14 R/B,1991-042B,2026-07-23T13:08:08.073024,14.81921522,.00176819,82.4926,92.7985,150.1202,210.1026,0,U,21423,999,87319,.31707584E-4,.275E-5,0
ERS-1,1991-050A,2026-07-23T12:24:36.118944,14.39537122,.00324095,98.7796,226.1021,157.3572,202.9053,0,U,21574,999,83527,.81989306E-4,.211E-5,0
ARIANE 40 R/B,1991-050F,2026-07-23T02:34:00.943104,14.42975161,.00037595,98.1857,251.1211,43.4344,316.7143,0,U,21610,999,83852,.77315614E-4,.217E-5,0
INTERCOSMOS 25,1991-086A,2026-07-23T02:24:06.323616,12.12249127,.14849351,82.6000,228.0776,184.8719,173.6395,0,U,21819,999,51309,.22782022E-3,.1174E-4,0
SL-8 R/B,1992-008B,2026-07-23T08:34:10.389216,13.75985416,.00360233,82.9282,166.8961,114.5259,37.9407,0,U,21876,999,72807,.13434035E-3,.146E-5,0
SL-8 R/B,1992-020B,2026-07-23T13:29:39.575040,13.75549690,.00277483,82.9274,52.8327,279.0899,107.9806,0,U,21938,999,71981,-.29592554E-4,-.14E-6,0
USA 81,1992-023A,2026-07-23T11:02:47.576832,14.32406481,.00016061,85.0047,53.0651,65.3633,294.7726,0,U,21949,999,11422,.42455935E-4,.135E-5,0
COSMOS 2219,1992-076A,2026-07-23T03:00:08.822304,14.14105453,.00186512,71.0604,94.9475,345.8004,14.2592,0,U,22219,999,73752,-.13071283E-3,-.296E-5,0
SL-16 R/B,1992-076B,2026-07-23T14:52:22.257984,14.16876828,.00149832,70.9990,262.0352,251.3192,269.5392,0,U,22220,999,74108,-.9524812E-4,-.239E-5,0
COSMOS 2221,1992-080A,2026-07-23T13:52:36.302880,14.96622527,.00159772,82.5054,148.8997,94.7760,265.5288,0,U,22236,999,80111,.12429481E-3,.1446E-4,0
SL-16 R/B,1992-093B,2026-07-23T08:30:28.441440,14.15463136,.0002193,71.0209,79.4665,111.0790,249.0568,0,U,22285,999,73235,-.34979734E-4,-.116E-5,0
COSMOS 2228,1992-094A,2026-07-23T13:37:30.988992,14.97694017,.00169505,82.5183,107.1951,199.2993,160.7590,0,U,22286,999,79639,.11526215E-3,.138E-4,0
SL-16 R/B,1993-016B,2026-07-23T11:30:50.241024,14.15317562,.00083838,71.0085,289.9809,123.1113,237.0816,0,U,22566,999,72138,.1189567E-3,.184E-5,0
COSMOS 2242,1993-024A,2026-07-23T06:38:11.800608,14.97002829,.0015264,82.5203,137.0158,203.5609,156.4916,0,U,22626,999,80067,.12206036E-3,.1433E-4,0
SL-16 R/B,1993-059B,2026-07-23T09:57:58.025088,14.17251654,.00171721,70.9902,84.9061,356.1337,3.9651,0,U,22803,999,69876,.12822711E-3,.211E-5,0
ARIANE 40 R/B,1993-061H,2026-07-23T10:42:19.776672,14.32920808,.00096921,98.4800,270.5466,238.5210,121.5027,0,U,22830,999,71354,.617302E-4,.126E-5,0
COSMOS 2278,1994-023A,2026-07-23T12:39:54.554400,14.14396601,.00091685,71.0514,250.8918,193.3900,166.6981,0,U,23087,999,66401,.18181461E-3,.301E-5,0
SL-16 R/B,1994-023B,2026-07-23T14:00:50.498784,14.15029605,.00011897,71.0002,145.4952,92.2552,267.8707,0,U,23088,999,66531,.18702173E-3,.315E-5,0
SL-16 R/B,1994-074B,2026-07-23T07:41:21.153408,14.79529433,.00076901,97.6985,229.5341,131.0154,239.4006,0,U,23343,999,70730,.53693008E-4,.353E-5,0
