COSMOS 2058             
1 20465U 90010A   26204.46526735  .00002758  00000+0  15802-3 0  9999
2 20465  82.4676 273.5751 0008716 217.0144 143.0486 15.12193680962754
SL-14 R/B               
1 20466U 90010B   26204.31711826  .00000314  00000+0  35083-4 0  9991
2 20466  82.5041 140.0164 0018914 208.9474 151.0694 14.83666735948593
SL-14 R/B               
1 20511U 90018B   26204.19547069  .00000299  00000+0  34498-4 0  9993
2 20511  82.5212  96.4520 0016410  11.6136 348.5454 14.82237797942656
HST                     
1 20580U 90037B   26204.25693192  .00005734  00000+0  17776-3 0  9994
2 20580  28.4721 193.9755 0001928 181.0239 179.0353 15.31122099794106
SL-16 R/B               
1 20625U 90046B   26204.49553269  .00000214  00000+0  13504-3 0  9993
2 20625  71.0001  12.6896 0012139  99.4872 260.7624 14.15029995867602
COSMOS 2084             
1 20663U 90055A   26204.31088123  .00001366  00000+0  10635-3 0  9999
2 20663  62.7872 232.7820 0009132 324.8121  35.2375 15.06243706956741
SL-6 R/B(2)             
1 20666U 90055D   26204.28354415  .00001940  00000+0  15086-3 0  9991
2 20666  62.7814 152.5329 0046363  10.1325 350.0698 15.04114726958588
SL-8 R/B                
1 20775U 90078B   26204.51586480  .00009698  00000+0  27503-3 0  9997
2 20775  82.9031 128.7766 0342615 275.1783  81.0431 14.93721786829540
SL-8 R/B                
1 21088U 91006B   26204.17477043  .00000102  00000+0  86941-4 0  9996
2 21088  82.9401  69.2576 0022941  18.9208  98.8235 13.77510541782721
OKEAN-3                 
1 21397U 91039A   26204.43091078  .00002089  00000+0  14329-3 0  9990
2 21397  82.5153 205.2304 0013174 222.7225 137.2979 15.05466937885456
COSMOS 2151             
1 21422U 91042A   26204.53735688  .00001187  00000+0  91943-4 0  9992
2 21422  82.4982 312.6011 0011244 325.9564  34.0938 15.00530912883569
SL-14 R/B               
1 21423U 91042B   26204.54731566  .00000275  00000+0  31708-4 0  9995
2 21423  82.4926  92.7985 0017681 150.1202 210.1026 14.81921522873194
ERS-1                   
1 21574U 91050A   26204.51708471  .00000211  00000+0  81989-4 0  9993
2 21574  98.7796 226.1021 0032409 157.3572 202.9053 14.39537122835272
ARIANE 40 R/B           
1 21610U 91050F   26204.10695536  .00000217  00000+0  77316-4 0  9991
2 21610  98.1857 251.1211 0003759  43.4344 316.7143 14.42975161838520
INTERCOSMOS 25          
1 21819U 91086A   26204.10007319  .00001174  00000+0  22782-3 0  9996
2 21819  82.6000 228.0776 1484935 184.8719 173.6395 12.12249127513096
SL-8 R/B                
1 21876U 92008B   26204.35706469  .00000146  00000+0  13434-3 0  9995
2 21876  82.9282 166.8961 0036023 114.5259  37.9407 13.75985416728078
SL-8 R/B                
1 21938U 92020B   26204.56226360 -.00000014  00000+0 -29593-4 0  9998
2 21938  82.9274  52.8327 0027748 279.0899 107.9806 13.75549690719812
USA 81                  
1 21949U 92023A   26204.46027288  .00000135  00000+0  42456-4 0  9995
2 21949  85.0047  53.0651 0001606  65.3633 294.7726 14.32406481114220
COSMOS 2219             
1 22219U 92076A   26204.12510211 -.00000296  00000+0 -13071-3 0  9990
2 22219  71.0604  94.9475 0018651 345.8004  14.2592 14.14105453737524
SL-16 R/B               
1 22220U 92076B   26204.61970206 -.00000239  00000+0 -95248-4 0  9994
2 22220  70.9990 262.0352 0014983 251.3192 269.5392 14.16876828741089
COSMOS 2221             
1 22236U 92080A   26204.57819795  .00001446  00000+0  12429-3 0  9994
2 22236  82.5054 148.8997 0015977  94.7760 265.5288 14.96622527801110
SL-16 R/B               
1 22285U 92093B   26204.35449585 -.00000116  00000+0 -34980-4 0  9996
2 22285  71.0209  79.4665 0002193 111.0790 249.0568 14.15463136732359
COSMOS 2228             
1 22286U 92094A   26204.56771978  .00001380  00000+0  11526-3 0  9997
2 22286  82.5183 107.1951 0016950 199.2993 160.7590 14.97694017796396
SL-16 R/B               
1 22566U 93016B   26204.47974816  .00000184  00000+0  11896-3 0  9990
2 22566  71.0085 289.9809 0008383 123.1113 237.0816 14.15317562721386
COSMOS 2242             
1 22626U 93024A   26204.27652547  .00001433  00000+0  12206-3 0  9992
2 22626  82.5203 137.0158 0015264 203.5609 156.4916 14.97002829800673
SL-16 R/B               
1 22803U 93059B   26204.41525492  .00000211  00000+0  12823-3 0  9999
2 22803  70.9902  84.9061 0017172 356.1337   3.9651 14.17251654698764
ARIANE 40 R/B           
1 22830U 93061H   26204.44606223  .00000126  00000+0  61730-4 0  9994
2 22830  98.4800 270.5466 0009692 238.5210 121.5027 14.32920808713548
COSMOS 2278             
1 23087U 94023A   26204.52771475  .00000301  00000+0  18181-3 0  9995
2 23087  71.0514 250.8918 0009168 193.3900 166.6981 14.14396601664011
SL-16 R/B               
1 23088U 94023B   26204.58391781  .00000315  00000+0  18702-3 0  9994
2 23088  71.0002 145.4952 0001189  92.2552 267.8707 14.15029605665318
SL-16 R/B               
1 23343U 94074B   26204.32038372  .00000353  00000+0  53693-4 0  9991
2 23343  97.6985 229.5341 0007690 131.0154 239.4006 14.79529433707302
